{
    "links": {
        "self": "http://www.neowsapp.com/rest/v1/neo/3653649?api_key=iIulBulltgU6a56xZRHN4H3l9WmuAYTsLGpBGhQ2"
    },
    "id": "3653649",
    "neo_reference_id": "3653649",
    "name": "(2013 VQ11)",
    "designation": "2013 VQ11",
    "nasa_jpl_url": "http://ssd.jpl.nasa.gov/sbdb.cgi?sstr=3653649",
    "absolute_magnitude_h": 25.8,
    "estimated_diameter": {
        "kilometers": {
            "estimated_diameter_min": 0.0183888672,
            "estimated_diameter_max": 0.0411187571
        },
        "meters": {
            "estimated_diameter_min": 18.388867207,
            "estimated_diameter_max": 41.1187571041
        },
        "miles": {
            "estimated_diameter_min": 0.0114263088,
            "estimated_diameter_max": 0.0255500032
        },
        "feet": {
            "estimated_diameter_min": 60.3309310875,
            "estimated_diameter_max": 134.9040630575
        }
    },
    "is_potentially_hazardous_asteroid": false,
    "close_approach_data": [
        {
            "close_approach_date": "2013-11-01",
            "close_approach_date_full": "2013-Nov-01 15:57",
            "epoch_date_close_approach": 1383321420000,
            "relative_velocity": {
                "kilometers_per_second": "8.3322388747",
                "kilometers_per_hour": "29996.0599489814",
                "miles_per_hour": "18638.3851388546"
            },
            "miss_distance": {
                "astronomical": "0.0556250286",
                "lunar": "21.6381361254",
                "kilometers": "8321385.797249082",
                "miles": "5170669.3672860516"
            },
            "orbiting_body": "Earth"
        }
    ],
    "orbital_data": {
        "orbit_id": "8",
        "orbit_determination_date": "2017-04-06 08:43:45",
        "first_observation_date": "2013-11-09",
        "last_observation_date": "2013-12-03",
        "data_arc_in_days": 24,
        "observations_used": 27,
        "orbit_uncertainty": "8",
        "minimum_orbit_intersection": ".0544954",
        "jupiter_tisserand_invariant": "3.297",
        "epoch_osculation": "2456612.5",
        "eccentricity": ".562273962973746",
        "semi_major_axis": "2.374987276079899",
        "inclination": "8.114552989938646",
        "ascending_node_longitude": "225.884501850158",
        "orbital_period": "1336.873632714832",
        "perihelion_distance": "1.039593768346232",
        "perihelion_argument": "163.7469605772992",
        "aphelion_distance": "3.710380783813565",
        "perihelion_time": "2456590.412939571908",
        "mean_anomaly": "5.947713799969319",
        "mean_motion": ".2692849878929369",
        "equinox": "J2000",
        "orbit_class": {
            "orbit_class_type": "AMO",
            "orbit_class_description": "Near-Earth asteroid orbits similar to that of 1221 Amor",
            "orbit_class_range": "1.017 AU < q (perihelion) < 1.3 AU"
        }
    },
    "is_sentry_object": false
}